[{"OBJECT_NAME":"SNIPE 4","OBJECT_ID":"2023-072B","EPOCH":"2026-03-09T22:51:01.035648","MEAN_MOTION":15.38255292,"ECCENTRICITY":0.00053591,"INCLINATION":97.5358,"RA_OF_ASC_NODE":272.044,"ARG_OF_PERICENTER":330.1264,"MEAN_ANOMALY":29.9674,"EPHEMERIS_TYPE":0,"CLASSIFICATION_TYPE":"U","NORAD_CAT_ID":56744,"ELEMENT_SET_NO":999,"REV_AT_EPOCH":15483,"BSTAR":0.00061038687,"MEAN_MOTION_DOT":0.00022972,"MEAN_MOTION_DDOT":0},{"OBJECT_NAME":"FLOCK 4BE-22","OBJECT_ID":"2024-149AC","EPOCH":"2026-03-09T22:55:19.962624","MEAN_MOTION":15.37753977,"ECCENTRICITY":0.00027602,"INCLINATION":97.377,"RA_OF_ASC_NODE":151.8049,"ARG_OF_PERICENTER":257.9236,"MEAN_ANOMALY":102.17,"EPHEMERIS_TYPE":0,"CLASSIFICATION_TYPE":"U","NORAD_CAT_ID":60494,"ELEMENT_SET_NO":999,"REV_AT_EPOCH":8703,"BSTAR":0.00063753177,"MEAN_MOTION_DOT":0.00023606,"MEAN_MOTION_DDOT":0}]
