SNIPE 4                 
1 56744U 23072B   26068.95209532  .00022972  00000+0  61039-3 0  9990
2 56744  97.5358 272.0440 0005359 330.1264  29.9674 15.38255292154835
FLOCK 4BE-22            
1 60494U 24149AC  26068.95509216  .00023606  00000+0  63753-3 0  9995
2 60494  97.3770 151.8049 0002760 257.9236 102.1700 15.37753977 87038
